#dP2023  3 17  6  0  0.00000000      96 __u+U ITR00 EXT  IAC
## 2253 453600.00000000   900.00000000 60020 0.2500000000000
+  119   C06C07C08C09C10C11C12C13C14C16C19C20C21C22C23C24C25
+        C26C27C28C29C30C32C33C34C35C36C37C38C39C40C41C42C43
+        C44C45C46E01E02E03E04E05E07E08E09E10E11E12E13E14E15
+        E18E19E21E24E25E26E27E31E33E34E36G01G02G03G04G05G06
+        G07G08G09G10G11G12G13G14G15G16G17G18G19G20G21G22G23
+        G24G25G26G27G28G29G30G31G32J02J03J04R01R02R03R04R05
+        R07R08R09R11R12R13R14R15R16R17R18R19R20R21R22R24R25
++        11  9 10 10 10  8  9  9  9 11  9  8  8 10  8  8  8
++         9  9  8  9  9  9  9  9 10  8  9  9  9  9  8  9  8
++         9  9  9  9  8  8  8  8  8  8  9  8  9  8  8  9  9
++         9  9  9  8  8  9  9  9  9  9  9  9  8  8  8  9  8
++         8  9  8  8  9  8  8  9  8  8  8  8  8  9  8  9  9
++         8  8  8  8  8  8  8  8  8  9  9 10  8  9  8  9 10
++         9  9  8  8  9  9  8  8  9  9  9  9  9 10  9  9 10
%c M  cc GPS ccc cccc cccc cccc cccc ccccc ccccc ccccc ccccc
%c cc cc ccc ccc cccc cccc cccc cccc ccccc ccccc ccccc ccccc
%f  0.0000000  0.000000000  0.00000000000  0.000000000000000
%f  0.0000000  0.000000000  0.00000000000  0.000000000000000
%i    0    0    0    0      0      0      0      0         0
%i    0    0    0    0      0      0      0      0         0
/* IAC                                ULTRA-RAPID PREDICTION
/* S/V CLOCKS ARE ALIGNED TO GNSS TIME                      
/* G:C1WC2W R:C1PC2P E:C1XC5X C:C2IC6I J:C1CC2S             
/* PCV:IGS20_2247 OL/AL:FES2004  NONE     YN ORB:CoN CLK:CoN
*  2023 03 18  0 30  0.00000000
PC06 -15591.754775  24620.505267  30399.467319   -196.210710
PC07 -12238.936372  40347.878144   2797.857158    -35.755803
PC08   1200.961667  28095.714352 -31337.836727    517.617368
PC09  -5038.482154  24924.255276  33968.367869    870.033415
PC10  -6765.514086  41720.008514  -3568.527677    -11.595472
PC11 -26074.243780   1732.491823   9876.886083    711.722466
PC12 -13877.401878 -10513.961320  21844.440339    513.082767
PC13   6506.499357  31442.974200 -27024.358102    231.914448
PC14 -15930.242690      3.291678 -22892.722244      5.696968
PC16 -18042.560890  23967.901515  29724.660031    135.684242
PC19  15868.020057 -10933.162621  20207.839609   -896.275976
PC20  13915.648412   9179.983904  22403.280045    674.192421
PC21  -3343.436032 -25321.697227 -11191.497010   -908.777191
PC22   8784.359504 -25737.472440   6200.705761   -580.895837
PC23  -6484.994146  15514.418635  22267.152046   -889.796545
PC24 -22759.670508 -15786.940002   3490.122190   -282.439855
PC25 -20376.455351   1242.771518  19022.880654     89.535378
PC26 -12933.350643 -21541.670832 -12197.010328    -93.333329
PC27   5122.802190  15081.686588 -22934.687864    112.083947
PC28 -13983.099471  17324.813355 -16820.931436     82.148137
PC29  26044.024443 -10025.541159   -434.127188     94.888787
PC30  21798.905435   4072.458336 -16965.365803      0.826085
PC32   3534.316753  25343.014796  11172.960303   -597.492897
PC33 -15817.944576  10983.019506 -20192.464497   -870.987588
PC34 -22562.445172  -3192.933302  16077.896803    128.818259
PC35  14370.345516 -17749.874696  16055.720208    662.636141
PC36  20742.995760   -138.417837 -18646.871626   -558.177738
PC37  11233.805284  21814.904036  13275.396581   -801.374010
PC38  -7498.691228  24165.573407 -33657.789221     65.672759
PC39 -23729.573100  23800.921904  25362.200748     -2.205989
PC40 -18053.999942  37877.794393   5208.831027    -17.827569
PC41  -8998.246208  25537.450169  -6711.253650   -736.265760
PC42 -13487.703931 -10546.445413 -21981.936064   -782.081359
PC43 -26213.829097   9449.844660   1202.192155     12.261197
PC44  -5450.154960 -15104.304498  22809.734351     47.514525
PC45   5979.522049 -15720.490448 -22277.279261    -73.481229
PC46  23145.472481  14680.279336  -5141.814667    -40.573056
PE01 -18179.057968  -5240.560448  22760.984117    -15.084993
PE02  18118.856482   4669.141255 -22940.716740     26.942188
PE03  22599.273890  -6683.380308  17907.178902   -660.182244
PE04 -20259.976157  21529.212457  -1463.391458    -80.654022
PE05  11682.272428  12449.961549  24188.277297    -85.482837
PE07   6060.936017 -24069.238910 -16113.202710    -30.653977
PE08  20310.194937 -21460.478284   1689.570784    -52.758975
PE09  -6249.892100  24078.777136  16057.572125   -872.565725
PE10  -9184.052205  14155.195561 -24324.576576   -519.825998
PE11   3149.641028  16641.815031 -24286.821427   1282.816579
PE12 -18948.642995   9795.818127 -20511.921248   -462.278305
PE13  -2164.082761 -16468.526512  24502.668616    -17.796068
PE14  22704.727314  -6042.735953 -12926.771959    171.290506
PE15  19260.987233  -9572.250117  20348.396719     -8.165793
PE18 -23070.563379  20200.545584     94.871804   -271.473974
PE19 -21787.957445   4127.299094 -19593.415693  -2984.026061
PE21 -15665.580269 -22465.779816  11229.236734   -518.103030
PE24   3322.128187  28197.427194   8300.324878  -1170.866862
PE25  15540.789119  22679.014699 -10957.806766   -601.520573
PE26 -22626.218755 -13455.008867  13533.004606     48.500047
PE27  -4010.517863 -28333.961537  -7601.544534   -537.300307
PE31  -9893.965889  17445.046454  21767.260652   -518.826438
PE33 -29143.703870  -2925.347222  -4208.993980   -448.924989
PE34  29145.467101   2771.131596   4364.131321    -35.439001
PE36  22082.025380  13635.972176 -14246.911661    -27.740284
PG01  18816.991983  14049.342286 -13070.722480    201.768719
PG02 -21442.305661 -11414.399723  11067.008136   -613.561746
PG03  12760.188365  21152.514455   9790.564345   -347.920603
PG04  11043.594177  10433.923912  21798.606864     -4.684698
PG05  -4551.735009 -25528.330020   5276.818952   -119.870898
PG06  18702.262934  -7030.347210  17614.881672    581.992848
PG07  25839.449748   7216.314927    707.091814    220.962612
PG08    439.772999  18765.889322 -18696.056335   -113.438170
PG09  18629.769818   -389.053600  18871.895126   -198.573277
PG10 -13059.237384   7526.236112 -21662.235391    -28.983807
PG11   4889.978221 -14316.492840  21840.089644   -133.535600
PG12 -10269.656232 -23176.774383   7804.509928   -352.790768
PG13   8389.383234 -19914.071983 -15483.719899    492.083628
PG14  14826.430404  -4445.543539 -21574.507816     -1.114629
PG15  -3453.542143 -18798.487047 -18789.137679     22.485134
PG16   -432.063334  25200.410700   7283.472341   -514.793397
PG17  21973.849206 -12048.954757  -8522.282984    706.014956
PG18 -25977.581687  -4381.347889  -3951.550365   -184.191279
PG19  20216.339171 -16976.753831    350.763311    291.430724
PG20   1531.217509 -22025.751575  14945.266475    444.392849
PG21  12372.884925  14813.847190 -18025.445058    154.333006
PG22 -17727.096572  19275.536034   4281.346060    447.204860
PG23 -16227.167374  -5508.779181 -20326.455283     11.209222
PG24 -15738.240889 -14706.723807 -16154.831928   -115.886878
PG25 -15649.035975 -14963.850994  15250.417620    428.517759
PG26  -7805.592911  17718.950720  17917.625832    241.975713
PG27 -10017.380846  21631.729874 -11495.764209     78.805201
PG28 -20073.142486   6960.440741  15905.485266     45.677589
PG29 -16270.630614  -4155.945777  20546.246393   -591.316991
PG30  23982.781925  -2272.563303 -11371.673571   -526.471832
PG31 -16156.460041   9358.615919  18890.156521   -211.847076
PG32 -20768.008022  14924.691458  -6598.450334   -426.394840
PJ02 -26467.592983  24126.917961  27261.404544     -1.213813
PJ03 -34218.756752  17404.495816 -12809.117241      1.081578
PJ04 -20781.029788  32075.448001 -12600.750717     94.156026
PR01  -3865.610274 -16653.112094 -18919.300210     24.963994
PR02 -11881.878807   1595.176237 -22456.989887    -23.122462
PR03 -12950.710845  18109.438200 -12345.922552     74.374088
PR04  -6977.691795  24142.770280   4371.421039    179.792279
PR05   2801.286310  17095.834099  18730.147062    109.485257
PR07  12888.086079 -18668.388019  11758.816100     51.948839
PR08   6811.744946 -24191.813204  -4389.648399    -69.934310
PR09  18252.672161   9516.880229 -15103.071273    109.730022
PR11  -3459.270938 -17416.058708 -18301.254829    -20.098216
PR12 -15795.632511 -19979.382141  -1564.341540     25.741872
PR13 -18318.078863 -11175.676176  13774.805347    -33.059524
PR14  -9662.191945   5790.234820  22890.567401     24.458169
PR15   4133.043681  18074.352071  17532.203350     90.416031
PR16  15809.632337  19942.795539   1962.344907     12.488556
PR17 -21782.794579   8338.058784 -10355.615117    613.421453
PR18  -7602.991234  11021.872377 -21683.272031     71.981405
PR19   8837.713062   8834.757450 -22238.718946   -225.684422
PR20  24244.961990    566.167513  -7980.735345    -89.547787
PR21  20792.956324  -8701.240116  11924.291756   -381.123709
PR22   7072.003706 -11179.689552  21839.423335     75.347035
PR24 -24435.585829    357.136235   7337.393499    154.556453
PR25  22240.243427  -7358.176856  10082.864161     58.055965
EOF
